{
    "links": {
        "self": "http://www.neowsapp.com/rest/v1/neo/3476133?api_key=iIulBulltgU6a56xZRHN4H3l9WmuAYTsLGpBGhQ2"
    },
    "id": "3476133",
    "neo_reference_id": "3476133",
    "name": "(2009 VZ25)",
    "designation": "2009 VZ25",
    "nasa_jpl_url": "http://ssd.jpl.nasa.gov/sbdb.cgi?sstr=3476133",
    "absolute_magnitude_h": 23.7,
    "estimated_diameter": {
        "kilometers": {
            "estimated_diameter_min": 0.0483676488,
            "estimated_diameter_max": 0.1081533507
        },
        "meters": {
            "estimated_diameter_min": 48.3676488219,
            "estimated_diameter_max": 108.1533506775
        },
        "miles": {
            "estimated_diameter_min": 0.0300542543,
            "estimated_diameter_max": 0.0672033557
        },
        "feet": {
            "estimated_diameter_min": 158.6865169607,
            "estimated_diameter_max": 354.8338390368
        }
    },
    "is_potentially_hazardous_asteroid": false,
    "close_approach_data": [
        {
            "close_approach_date": "2009-11-22",
            "close_approach_date_full": "2009-Nov-22 06:19",
            "epoch_date_close_approach": 1258870740000,
            "relative_velocity": {
                "kilometers_per_second": "4.6426593877",
                "kilometers_per_hour": "16713.5737956319",
                "miles_per_hour": "10385.1647842914"
            },
            "miss_distance": {
                "astronomical": "0.1862602126",
                "lunar": "72.4552227014",
                "kilometers": "27864131.070707162",
                "miles": "17313968.1879643556"
            },
            "orbiting_body": "Earth"
        }
    ],
    "orbital_data": {
        "orbit_id": "12",
        "orbit_determination_date": "2017-04-06 08:59:13",
        "first_observation_date": "2009-11-11",
        "last_observation_date": "2009-12-06",
        "data_arc_in_days": 25,
        "observations_used": 40,
        "orbit_uncertainty": "8",
        "minimum_orbit_intersection": ".18619",
        "jupiter_tisserand_invariant": "3.024",
        "epoch_osculation": "2455155.5",
        "eccentricity": ".5876450201800075",
        "semi_major_axis": "2.846177612012418",
        "inclination": "2.173781050314564",
        "ascending_node_longitude": "249.1024574277149",
        "orbital_period": "1753.845868900822",
        "perihelion_distance": "1.173635511765495",
        "perihelion_argument": "172.3965661397032",
        "aphelion_distance": "4.518719712259341",
        "perihelion_time": "2455158.983654696541",
        "mean_anomaly": "359.2849339197972",
        "mean_motion": ".2052631912436073",
        "equinox": "J2000",
        "orbit_class": {
            "orbit_class_type": "AMO",
            "orbit_class_description": "Near-Earth asteroid orbits similar to that of 1221 Amor",
            "orbit_class_range": "1.017 AU < q (perihelion) < 1.3 AU"
        }
    },
    "is_sentry_object": false
}